start=new Date('2022-03-16T00:00:00.000Z').valueOf();
sats=[{"TLE_LINE1":"1 47978U 21024B   22074.58917292  .00004817  00000-0  34202-3 0  9996","EPHEMERIS_TYPE":"0","FILE":"3360610","OBJECT_NAME":"STARLINK-1647","ELEMENT_SET_NO":"999","TLE_LINE2":"2 47978  53.0547  28.8139 0001734  55.1008 305.0144 15.06405485 54718","PERIOD":"95.592","SITE":"AFETR","MEAN_MOTION_DOT":"0.00004817","APOAPSIS":"548.398","CENTER_NAME":"EARTH","OBJECT_ID":"2021-024B","SEMIMAJOR_AXIS":"6925.332","DECAY_DATE":null,"ARG_OF_PERICENTER":"55.1008","RA_OF_ASC_NODE":"28.8139","MEAN_ANOMALY":"305.0144","REV_AT_EPOCH":"5471","NORAD_CAT_ID":"47978","ECCENTRICITY":"0.00017340","RCS_SIZE":"LARGE","REF_FRAME":"TEME","GP_ID":"198817614","MEAN_MOTION":"15.06405485","BSTAR":"0.00034202000000","LAUNCH_DATE":"2021-03-24","EPOCH":"2022-03-15T14:08:24.540288","MEAN_ELEMENT_THEORY":"SGP4","PERIAPSIS":"545.996","COUNTRY_CODE":"US","MEAN_MOTION_DDOT":"0.0000000000000","INCLINATION":"53.0547","OBJECT_TYPE":"PAYLOAD","TIME_SYSTEM":"UTC","CLASSIFICATION_TYPE":"U"},{"CLASSIFICATION_TYPE":"U","TIME_SYSTEM":"UTC","OBJECT_TYPE":"PAYLOAD","INCLINATION":"53.0525","MEAN_ELEMENT_THEORY":"SGP4","PERIAPSIS":"546.070","EPOCH":"2022-03-15T22:00:00.999936","MEAN_MOTION_DDOT":"0.0000000000000","COUNTRY_CODE":"US","NORAD_CAT_ID":"47979","REV_AT_EPOCH":"358","LAUNCH_DATE":"2021-03-24","BSTAR":"-0.00554100000000","MEAN_MOTION":"15.06419230","GP_ID":"198846593","REF_FRAME":"TEME","RCS_SIZE":"LARGE","ECCENTRICITY":"0.00015660","ARG_OF_PERICENTER":"57.9259","MEAN_ANOMALY":"261.8959","RA_OF_ASC_NODE":"322.3405","SEMIMAJOR_AXIS":"6925.290","DECAY_DATE":null,"APOAPSIS":"548.239","MEAN_MOTION_DOT":"-0.00081914","OBJECT_ID":"2021-024C","CENTER_NAME":"EARTH","TLE_LINE1":"1 47979U 21024C   22074.91667824 -.00081914  00000-0 -55410-2 0  9995","SITE":"AFETR","PERIOD":"95.591","TLE_LINE2":"2 47979  53.0525 322.3405 0001566  57.9259 261.8959 15.06419230  3589","ELEMENT_SET_NO":"999","FILE":"3360930","EPHEMERIS_TYPE":"0","OBJECT_NAME":"STARLINK-2325"},{"TLE_LINE1":"1 47980U 21024D   22074.91667824 -.00000843  00000-0 -37754-4 0  9992","PERIOD":"95.596","TLE_LINE2":"2 47980  53.0561 302.3493 0001857  52.6739 217.1400 15.06344821  3582","SITE":"AFETR","FILE":"3360930","OBJECT_NAME":"STARLINK-2312","EPHEMERIS_TYPE":"0","ELEMENT_SET_NO":"999","APOAPSIS":"548.669","MEAN_MOTION_DOT":"-0.00000843","OBJECT_ID":"2021-024D","CENTER_NAME":"EARTH","SEMIMAJOR_AXIS":"6925.518","DECAY_DATE":null,"ARG_OF_PERICENTER":"52.6739","MEAN_ANOMALY":"217.1400","RA_OF_ASC_NODE":"302.3493","NORAD_CAT_ID":"47980","REV_AT_EPOCH":"358","BSTAR":"-0.00003775400000","LAUNCH_DATE":"2021-03-24","RCS_SIZE":"LARGE","ECCENTRICITY":"0.00018570","GP_ID":"198847343","MEAN_MOTION":"15.06344821","REF_FRAME":"TEME","EPOCH":"2022-03-15T22:00:00.999936","MEAN_ELEMENT_THEORY":"SGP4","PERIAPSIS":"546.097","MEAN_MOTION_DDOT":"0.0000000000000","COUNTRY_CODE":"US","OBJECT_TYPE":"PAYLOAD","TIME_SYSTEM":"UTC","INCLINATION":"53.0561","CLASSIFICATION_TYPE":"U"},{"COUNTRY_CODE":"US","MEAN_MOTION_DDOT":"0.0000000000000","PERIAPSIS":"546.059","MEAN_ELEMENT_THEORY":"SGP4","EPOCH":"2022-03-15T13:52:29.926560","GP_ID":"198848092","MEAN_MOTION":"15.06419043","REF_FRAME":"TEME","ECCENTRICITY":"0.00015830","RCS_SIZE":"LARGE","LAUNCH_DATE":"2021-03-24","BSTAR":"0.00073979000000","REV_AT_EPOCH":"5524","NORAD_CAT_ID":"47981","CLASSIFICATION_TYPE":"U","INCLINATION":"53.0537","TIME_SYSTEM":"UTC","OBJECT_TYPE":"PAYLOAD","CENTER_NAME":"EARTH","OBJECT_ID":"2021-024E","MEAN_MOTION_DOT":"0.00010760","APOAPSIS":"548.251","ELEMENT_SET_NO":"999","FILE":"3360930","OBJECT_NAME":"STARLINK-2303","EPHEMERIS_TYPE":"0","SITE":"AFETR","TLE_LINE2":"2 47981  53.0537  28.8691 0001583  57.7563 302.3579 15.06419043 55246","PERIOD":"95.591","TLE_LINE1":"1 47981U 21024E   22074.57812415  .00010760  00000-0  73979-3 0  9998","RA_OF_ASC_NODE":"28.8691","MEAN_ANOMALY":"302.3579","ARG_OF_PERICENTER":"57.7563","DECAY_DATE":null,"SEMIMAJOR_AXIS":"6925.290"},{"ARG_OF_PERICENTER":"48.6717","RA_OF_ASC_NODE":"317.3420","MEAN_ANOMALY":"93.5544","SEMIMAJOR_AXIS":"6925.602","DECAY_DATE":null,"MEAN_MOTION_DOT":"-0.00003895","APOAPSIS":"548.968","CENTER_NAME":"EARTH","OBJECT_ID":"2021-024F","TLE_LINE1":"1 47982U 21024F   22074.91667824 -.00003895  00000-0 -24327-3 0  9995","ELEMENT_SET_NO":"999","OBJECT_NAME":"STARLINK-2317","FILE":"3360930","EPHEMERIS_TYPE":"0","SITE":"AFETR","TLE_LINE2":"2 47982  53.0548 317.3420 0002167  48.6717  93.5544 15.06317211  3589","PERIOD":"95.597","CLASSIFICATION_TYPE":"U","INCLINATION":"53.0548","TIME_SYSTEM":"UTC","OBJECT_TYPE":"PAYLOAD","PERIAPSIS":"545.967","MEAN_ELEMENT_THEORY":"SGP4","EPOCH":"2022-03-15T22:00:00.999936","COUNTRY_CODE":"US","MEAN_MOTION_DDOT":"0.0000000000000","REV_AT_EPOCH":"358","NORAD_CAT_ID":"47982","MEAN_MOTION":"15.06317211","GP_ID":"198846843","REF_FRAME":"TEME","ECCENTRICITY":"0.00021670","RCS_SIZE":"LARGE","LAUNCH_DATE":"2021-03-24","BSTAR":"-0.00024327000000"},{"OBJECT_ID":"2021-024J","CENTER_NAME":"EARTH","APOAPSIS":"548.430","MEAN_MOTION_DOT":"-0.00017973","PERIOD":"95.594","TLE_LINE2":"2 47985  53.0558 322.3538 0001632  69.2243 130.5521 15.06371972  3589","SITE":"AFETR","FILE":"3360930","OBJECT_NAME":"STARLINK-2308","EPHEMERIS_TYPE":"0","ELEMENT_SET_NO":"999","TLE_LINE1":"1 47985U 21024J   22074.91667824 -.00017973  00000-0 -11916-2 0  9999","MEAN_ANOMALY":"130.5521","RA_OF_ASC_NODE":"322.3538","ARG_OF_PERICENTER":"69.2243","DECAY_DATE":null,"SEMIMAJOR_AXIS":"6925.434","MEAN_MOTION_DDOT":"0.0000000000000","COUNTRY_CODE":"US","EPOCH":"2022-03-15T22:00:00.999936","PERIAPSIS":"546.169","MEAN_ELEMENT_THEORY":"SGP4","BSTAR":"-0.00119160000000","LAUNCH_DATE":"2021-03-24","ECCENTRICITY":"0.00016320","RCS_SIZE":"LARGE","GP_ID":"198847093","MEAN_MOTION":"15.06371972","REF_FRAME":"TEME","NORAD_CAT_ID":"47985","REV_AT_EPOCH":"358","CLASSIFICATION_TYPE":"U","OBJECT_TYPE":"PAYLOAD","TIME_SYSTEM":"UTC","INCLINATION":"53.0558"},{"CLASSIFICATION_TYPE":"U","INCLINATION":"53.0559","TIME_SYSTEM":"UTC","OBJECT_TYPE":"PAYLOAD","PERIAPSIS":"400.824","MEAN_ELEMENT_THEORY":"SGP4","EPOCH":"2022-03-15T20:14:29.050656","COUNTRY_CODE":"US","MEAN_MOTION_DDOT":"0.0000000000000","REV_AT_EPOCH":"5535","NORAD_CAT_ID":"47988","GP_ID":"198818206","MEAN_MOTION":"15.55145137","REF_FRAME":"TEME","ECCENTRICITY":"0.00013400","RCS_SIZE":"LARGE","LAUNCH_DATE":"2021-03-24","BSTAR":"0.00006448500000","ARG_OF_PERICENTER":"88.1502","RA_OF_ASC_NODE":"344.7918","MEAN_ANOMALY":"271.9661","SEMIMAJOR_AXIS":"6779.868","DECAY_DATE":null,"MEAN_MOTION_DOT":"0.00003944","APOAPSIS":"402.641","CENTER_NAME":"EARTH","OBJECT_ID":"2021-024M","TLE_LINE1":"1 47988U 21024M   22074.84339179  .00003944  00000-0  64485-4 0  9995","ELEMENT_SET_NO":"999","FILE":"3360616","EPHEMERIS_TYPE":"0","OBJECT_NAME":"STARLINK-2306","SITE":"AFETR","TLE_LINE2":"2 47988  53.0559 344.7918 0001340  88.1502 271.9661 15.55145137 55350","PERIOD":"92.596"},{"APOAPSIS":"548.412","MEAN_MOTION_DOT":"0.00006994","OBJECT_ID":"2021-024N","CENTER_NAME":"EARTH","TLE_LINE1":"1 47989U 21024N   22074.91667824  .00006994  00000-0  48882-3 0  9995","PERIOD":"95.596","TLE_LINE2":"2 47989  53.0539 297.3445 0001428  84.5391 112.7772 15.06331544  3588","SITE":"AFETR","FILE":"3360930","OBJECT_NAME":"STARLINK-2305","EPHEMERIS_TYPE":"0","ELEMENT_SET_NO":"999","ARG_OF_PERICENTER":"84.5391","MEAN_ANOMALY":"112.7772","RA_OF_ASC_NODE":"297.3445","SEMIMAJOR_AXIS":"6925.558","DECAY_DATE":null,"EPOCH":"2022-03-15T22:00:00.999936","MEAN_ELEMENT_THEORY":"SGP4","PERIAPSIS":"546.434","MEAN_MOTION_DDOT":"0.0000000000000","COUNTRY_CODE":"US","NORAD_CAT_ID":"47989","REV_AT_EPOCH":"358","BSTAR":"0.00048882000000","LAUNCH_DATE":"2021-03-24","RCS_SIZE":"LARGE","ECCENTRICITY":"0.00014280","MEAN_MOTION":"15.06331544","GP_ID":"198847593","REF_FRAME":"TEME","CLASSIFICATION_TYPE":"U","OBJECT_TYPE":"PAYLOAD","TIME_SYSTEM":"UTC","INCLINATION":"53.0539"},{"SITE":"AFETR","PERIOD":"95.595","TLE_LINE2":"2 47990  53.0510 297.3468 0001821  60.6158  31.4660 15.06358554  3591","ELEMENT_SET_NO":"999","OBJECT_NAME":"STARLINK-2307","FILE":"3360930","EPHEMERIS_TYPE":"0","TLE_LINE1":"1 47990U 21024P   22074.91667824 -.00002821  00000-0 -17077-3 0  9996","OBJECT_ID":"2021-024P","CENTER_NAME":"EARTH","APOAPSIS":"548.602","MEAN_MOTION_DOT":"-0.00002821","DECAY_DATE":null,"SEMIMAJOR_AXIS":"6925.476","MEAN_ANOMALY":"31.4660","RA_OF_ASC_NODE":"297.3468","ARG_OF_PERICENTER":"60.6158","LAUNCH_DATE":"2021-03-24","BSTAR":"-0.00017077000000","REF_FRAME":"TEME","GP_ID":"198846344","MEAN_MOTION":"15.06358554","ECCENTRICITY":"0.00018210","RCS_SIZE":"LARGE","NORAD_CAT_ID":"47990","REV_AT_EPOCH":"359","MEAN_MOTION_DDOT":"0.0000000000000","COUNTRY_CODE":"US","PERIAPSIS":"546.079","MEAN_ELEMENT_THEORY":"SGP4","EPOCH":"2022-03-15T22:00:00.999936","TIME_SYSTEM":"UTC","OBJECT_TYPE":"PAYLOAD","INCLINATION":"53.0510","CLASSIFICATION_TYPE":"U"},{"ELEMENT_SET_NO":"999","FILE":"3360930","OBJECT_NAME":"STARLINK-2279","EPHEMERIS_TYPE":"0","SITE":"AFETR","TLE_LINE2":"2 47991  53.0546 312.3508 0001483  81.0115 313.7287 15.06368733  3599","PERIOD":"95.594","TLE_LINE1":"1 47991U 21024Q   22074.91667824 -.00021070  00000-0 -14010-2 0  9997","CENTER_NAME":"EARTH","OBJECT_ID":"2021-024Q","MEAN_MOTION_DOT":"-0.00021070","APOAPSIS":"548.336","DECAY_DATE":null,"SEMIMAJOR_AXIS":"6925.444","RA_OF_ASC_NODE":"312.3508","MEAN_ANOMALY":"313.7287","ARG_OF_PERICENTER":"81.0115","GP_ID":"198846594","MEAN_MOTION":"15.06368733","REF_FRAME":"TEME","RCS_SIZE":"LARGE","ECCENTRICITY":"0.00014830","LAUNCH_DATE":"2021-03-24","BSTAR":"-0.00140100000000","REV_AT_EPOCH":"359","NORAD_CAT_ID":"47991","COUNTRY_CODE":"US","MEAN_MOTION_DDOT":"0.0000000000000","MEAN_ELEMENT_THEORY":"SGP4","PERIAPSIS":"546.282","EPOCH":"2022-03-15T22:00:00.999936","INCLINATION":"53.0546","TIME_SYSTEM":"UTC","OBJECT_TYPE":"PAYLOAD","CLASSIFICATION_TYPE":"U"}];
